{
  "type": "FeatureCollection",
  "features": [
    {
      "type": "Feature",
      "properties": {
        "norad_id": 50032,
        "name": "COSMOS 1408 DEB",
        "group": "cosmos-1408-debris",
        "lat": -27.677158087530767,
        "lon": 46.51461736735477,
        "alt_km": 444.71949438786487,
        "timestamp": "2025-12-20T14:38:02.240409+00:00",
        "meta_object_name": "COSMOS 1408 DEB",
        "meta_object_id": "1982-092RU",
        "meta_epoch": "2025-12-20T05:25:58.948608",
        "meta_mean_motion": 15.45764789,
        "meta_eccentricity": 0.00159806,
        "meta_inclination": 82.5638,
        "meta_ra_of_asc_node": 50.8358,
        "meta_arg_of_pericenter": 180.5492,
        "meta_mean_anomaly": 179.5742,
        "meta_ephemeris_type": 0,
        "meta_classification_type": "U",
        "meta_norad_cat_id": 50032,
        "meta_element_set_no": 999,
        "meta_rev_at_epoch": 22719,
        "meta_bstar": 8.0316152e-05,
        "meta_mean_motion_dot": 3.945e-05,
        "meta_mean_motion_ddot": 0,
        "tle_line1": "1 50032U 82092RU  25354.22637672  .00003945  00000+0  80316-4 0  9997",
        "tle_line2": "2 50032  82.5638  50.8358 0015980 180.5492 179.5742 15.45764789227197"
      },
      "geometry": {
        "type": "Point",
        "coordinates": [
          46.51461736735477,
          -27.677158087530767
        ]
      }
    },
    {
      "type": "Feature",
      "properties": {
        "norad_id": 50058,
        "name": "COSMOS 1408 DEB",
        "group": "cosmos-1408-debris",
        "lat": -19.93479119894044,
        "lon": 58.40572710044701,
        "alt_km": 380.1558725122177,
        "timestamp": "2025-12-20T14:38:02.240431+00:00",
        "meta_object_name": "COSMOS 1408 DEB",
        "meta_object_id": "1982-092SW",
        "meta_epoch": "2025-12-20T05:30:34.525728",
        "meta_mean_motion": 15.64533441,
        "meta_eccentricity": 0.00161733,
        "meta_inclination": 82.6128,
        "meta_ra_of_asc_node": 61.501,
        "meta_arg_of_pericenter": 73.1151,
        "meta_mean_anomaly": 287.188,
        "meta_ephemeris_type": 0,
        "meta_classification_type": "U",
        "meta_norad_cat_id": 50058,
        "meta_element_set_no": 999,
        "meta_rev_at_epoch": 22921,
        "meta_bstar": 0.00023868898,
        "meta_mean_motion_dot": 0.00023195,
        "meta_mean_motion_ddot": 0,
        "tle_line1": "1 50058U 82092SW  25354.22956627  .00023195  00000+0  23869-3 0  9997",
        "tle_line2": "2 50058  82.6128  61.5010 0016173  73.1151 287.1880 15.64533441229212"
      },
      "geometry": {
        "type": "Point",
        "coordinates": [
          58.40572710044701,
          -19.93479119894044
        ]
      }
    },
    {
      "type": "Feature",
      "properties": {
        "norad_id": 50404,
        "name": "COSMOS 1408 DEB",
        "group": "cosmos-1408-debris",
        "lat": 62.56950274671704,
        "lon": 11.666716153039806,
        "alt_km": 447.94287408590844,
        "timestamp": "2025-12-20T14:38:02.240445+00:00",
        "meta_object_name": "COSMOS 1408 DEB",
        "meta_object_id": "1982-092ADS",
        "meta_epoch": "2025-12-19T14:20:11.624064",
        "meta_mean_motion": 15.1481285,
        "meta_eccentricity": 0.0169261,
        "meta_inclination": 82.2053,
        "meta_ra_of_asc_node": 208.0078,
        "meta_arg_of_pericenter": 175.439,
        "meta_mean_anomaly": 184.8437,
        "meta_ephemeris_type": 0,
        "meta_classification_type": "U",
        "meta_norad_cat_id": 50404,
        "meta_element_set_no": 999,
        "meta_rev_at_epoch": 21297,
        "meta_bstar": 0.0021779,
        "meta_mean_motion_dot": 0.0005852,
        "meta_mean_motion_ddot": 0,
        "tle_line1": "1 50404U 82092ADS 25353.59735676  .00058520  00000+0  21779-2 0  9997",
        "tle_line2": "2 50404  82.2053 208.0078 0169261 175.4390 184.8437 15.14812850212975"
      },
      "geometry": {
        "type": "Point",
        "coordinates": [
          11.666716153039806,
          62.56950274671704
        ]
      }
    },
    {
      "type": "Feature",
      "properties": {
        "norad_id": 50621,
        "name": "COSMOS 1408 DEB",
        "group": "cosmos-1408-debris",
        "lat": 34.34273126328826,
        "lon": -119.1294771108532,
        "alt_km": 375.74854040116406,
        "timestamp": "2025-12-20T14:38:02.240456+00:00",
        "meta_object_name": "COSMOS 1408 DEB",
        "meta_object_id": "1982-092ALR",
        "meta_epoch": "2025-12-19T22:35:23.224128",
        "meta_mean_motion": 15.57015265,
        "meta_eccentricity": 0.0029104,
        "meta_inclination": 82.57,
        "meta_ra_of_asc_node": 66.6825,
        "meta_arg_of_pericenter": 126.3285,
        "meta_mean_anomaly": 234.0664,
        "meta_ephemeris_type": 0,
        "meta_classification_type": "U",
        "meta_norad_cat_id": 50621,
        "meta_element_set_no": 999,
        "meta_rev_at_epoch": 22362,
        "meta_bstar": 0.00024847,
        "meta_mean_motion_dot": 0.00018347,
        "meta_mean_motion_ddot": 0,
        "tle_line1": "1 50621U 82092ALR 25353.94124102  .00018347  00000+0  24847-3 0  9996",
        "tle_line2": "2 50621  82.5700  66.6825 0029104 126.3285 234.0664 15.57015265223621"
      },
      "geometry": {
        "type": "Point",
        "coordinates": [
          -119.1294771108532,
          34.34273126328826
        ]
      }
    }
  ]
}